SAUDISAT 4              
1 40016U 14033G   26087.36556123  .00000785  00000+0  11042-3 0  9996
2 40016  97.7452 236.3539 0044274 338.1270  21.8051 14.79421495634122
APRIZESAT 9             
1 40018U 14033J   26087.63892153  .00000895  00000+0  13859-3 0  9994
2 40018  97.8921 222.8695 0067621  99.1991 261.6875 14.74112734631699
BRITE-CA1 (TORONTO)     
1 40020U 14033L   26087.31630486  .00001599  00000+0  24760-3 0  9996
2 40020  97.9601 217.8031 0079051 174.9106 185.2924 14.72520262630317
DUCHIFAT-1              
1 40021U 14033M   26087.60321211  .00076623  00000+0  12559-2 0  9994
2 40021  98.0603 136.2924 0003912  23.3897 336.7531 15.52193066643200
NANOSATC-BR1            
1 40024U 14033Q   26087.57495381  .00020658  00000+0  73890-3 0  9996
2 40024  98.0820 112.9529 0005488 104.0038 256.1810 15.28824852641659
QB50P1                  
1 40025U 14033R   26087.57840542  .00010949  00000+0  55840-3 0  9997
2 40025  98.1003  93.1439 0010253 134.0107 226.1971 15.16899460640805
DTUSAT-2                
1 40030U 14033W   26087.49918023  .00009112  00000+0  50717-3 0  9992
2 40030  98.0862  80.1812 0009152 139.7419 220.4490 15.13861574640476
QB50P2                  
1 40032U 14033Y   26087.50141240  .00009835  00000+0  54475-3 0  9992
2 40032  98.0746  79.4365 0009565  90.3155 269.9171 15.14008024640456
PERSEUS-M1              
1 40039U 14033AF  26087.41099131  .00001682  00000+0  15790-3 0  9999
2 40039  97.9575  30.2681 0010882 198.7747 161.3073 14.95339778638567
POLYITAN-1              
1 40042U 14033AJ  26087.57564348  .00023611  00000+0  80429-3 0  9994
2 40042  98.1033 106.3644 0009371  76.3268 283.9014 15.30361713641257
TIGRISAT                
1 40043U 14033AK  26087.39215196  .00002175  00000+0  25716-3 0  9999
2 40043  97.7705 239.3229 0048929 341.1865  18.7540 14.84814543633636
AISAT                   
1 40054U 14034B   26087.61114964  .00013976  00000+0  93168-3 0  9995
2 40054  98.2441 354.2358 0010542 126.7490 233.4705 15.07159142635063
CANX-4                  
1 40055U 14034C   26087.55987214  .00001112  00000+0  15042-3 0  9999
2 40055  98.3244 319.8685 0011529 270.8657  89.1233 14.81107521632590
CANX-5                  
1 40056U 14034D   26087.55923149  .00001112  00000+0  15041-3 0  9996
2 40056  98.3246 319.9066 0011532 271.1320  88.8570 14.81124343623403
VELOX-I                 
1 40057U 14034E   26087.60847316  .00007508  00000+0  65579-3 0  9990
2 40057  98.2614 348.0646 0007647 162.8256 197.3224 14.97093677634546
GONETS-M 10             
1 40063U 14036C   26087.57701399  .00000105  00000+0  68602-3 0  9991
2 40063  82.5167 357.7450 0021543 320.8792  39.0729 12.42943417532233
METEOR-M 2              
1 40069U 14037A   26087.54828534  .00000310  00000+0  16100-3 0  9990
2 40069  98.5054  66.1719 0004562 273.5437  86.5219 14.21436992607869
DX1                     
1 40071U 14037C   26087.56634282  .00001916  00000+0  20657-3 0  9995
2 40071  98.3786  44.4321 0007343 163.1624 196.9837 14.89705712634104
UKUBE-1                 
1 40074U 14037F   26087.54449579  .00011747  00000+0  68443-3 0  9997
2 40074  98.4237  82.4331 0003189  83.0903 277.0688 15.12183456636363
GAOFEN-2                
1 40118U 14049A   26087.63327318  .00000526  00000+0  75151-4 0  9993
2 40118  98.0188 151.8953 0008378 127.3575 232.8401 14.80799222627311
BRITE-PL2 (HEWELIUSZ)   
1 40119U 14049B   26087.28946829  .00002057  00000+0  19683-3 0  9997
2 40119  97.8992 198.7296 0014408  23.0150 337.1713 14.94273158629366
CBERS 4                 
1 40336U 14079A   26087.60212292  .00000250  00000+0  10160-3 0  9991
2 40336  98.3444 147.0061 0000273  56.6267 303.4945 14.35572360592395
SMAP                    
1 40376U 15003A   26087.60160278  .00000550  00000+0  11549-3 0  9994
2 40376  98.1308  95.8266 0001848 100.3278 259.8133 14.63361933595839
GONETS-M 11             
1 40552U 15020A   26087.59106014 -.00000032  00000+0 -29998-3 0  9999
2 40552  82.4812  81.2105 0016051 173.6230 186.5057 12.42873169498720
GONETS-M 12             
1 40553U 15020B   26087.56550962  .00000040  00000+0  21950-3 0  9999
2 40553  82.4845  82.3296 0015383 158.1395 202.0344 12.42888806498713
GONETS-M 13             
1 40554U 15020C   26087.53763582  .00000027  00000+0  12171-3 0  9991
2 40554  82.4807  80.9851 0014309 142.9828 217.2242 12.42867394498682
DMC3-FM1                
1 40715U 15032A   26087.58719765  .00000844  00000+0  10340-3 0  9995
2 40715  97.6586 315.8726 0004819 334.2081  25.8893 14.85642093577944
DMC3-FM2                
1 40716U 15032B   26087.60948392  .00001113  00000+0  13444-3 0  9997
2 40716  97.6640 317.4128 0005518 339.5819  20.5176 14.85647001577944
DMC3-FM3                
1 40717U 15032C   26087.63257075 -.00000088  00000+0 -42677-5 0  9996
2 40717  97.6694 319.1357 0004769 340.8683  19.2353 14.85642426577957
CARBONITE 1 (CBNT-1)    
1 40718U 15032D   26087.57791218  .00002703  00000+0  33583-3 0  9990
2 40718  97.6481 269.0424 0014223 194.0003 166.0819 14.83304422577396
DEORBITSAIL             
1 40719U 15032E   26087.54999553  .00010622  00000+0  79898-3 0  9998
2 40719  97.6004 305.9271 0013472 146.4909 213.7171 15.02653441579134
2015-049G               
1 40905U 15049G   26087.59533909  .00042389  00000+0  51345-3 0  9999
2 40905  97.4684 127.1482 0007085 142.4484 217.7269 15.60521836583850
LILACSAT-2              
1 40908U 15049K   26087.57960443  .00020438  00000+0  38234-3 0  9990
2 40908  97.4780 121.4663 0007744 170.5730 189.5667 15.48718320583261
COSMOS 2507 (RODNIK-S *)
1 40920U 15050A   26087.57668509 -.00000112  00000+0 -88223-3 0  9996
2 40920  82.4909 129.8663 0010427 158.4476 201.7045 12.42923359476841
COSMOS 2508 (RODNIK-S *)
1 40921U 15050B   26087.53084947  .00000037  00000+0  19457-3 0  9998
2 40921  82.4860 128.4309 0013953 193.9216 166.1481 12.42911084476821
COSMOS 2509 (RODNIK-S *)
1 40922U 15050C   26087.54919975 -.00000083  00000+0 -67158-3 0  9992
2 40922  82.4868 128.5134 0013898 211.8655 148.1585 12.42880625476867
LQSAT                   
1 40958U 15057A   26087.57270337  .00001180  00000+0  17526-3 0  9994
2 40958  97.6677  84.9555 0017084 169.0379 191.1207 14.76671374563417
LINGQIAO VIDEO A        
1 40959U 15057B   26087.62646086  .00001097  00000+0  16114-3 0  9998
2 40959  97.6623  86.4172 0016922 166.1250 194.0430 14.77273861563518
LINGQIAO VIDEO B        
1 40960U 15057C   26087.60874528  .00000496  00000+0  76464-4 0  9999
2 40960  97.6592  87.5840 0017053 166.4244 193.7429 14.77367902563559
JILIN-1                 
1 40961U 15057D   26087.59022946  .00000815  00000+0  11940-3 0  9999
2 40961  97.6520  90.9667 0017454 160.9080 199.2790 14.78025137563709
FOX-1A (AO-85)          
1 40967U 15058D   26087.58146918  .00002636  00000+0  24565-3 0  9991
2 40967  64.7757 169.3847 0128433  88.3269 273.2549 14.90487488101556
SINOD-D 1               
1 40968U 15058E   26087.56889709  .00003636  00000+0  30175-3 0  9997
2 40968  64.7754 151.2454 0116848  85.3967 276.0483 14.95228210104605
ELEKTRO-L 2             
1 41105U 15074A   26087.25662619 -.00000132  00000+0  00000+0 0  9993
2 41105   6.4915  71.5035 0002854 245.3315 306.7306  1.00271696 37693
DAMPE                   
1 41173U 15078A   26087.62946380  .00001409  00000+0  50228-4 0  9992
2 41173  97.4589  92.7066 0012474  10.4101 349.7395 15.30564470572228
ORBCOMM FM114           
1 41179U 15081A   26087.50381931  .00000638  00000+0  17145-3 0  9997
2 41179  47.0063  23.4367 0002205 210.6002 149.4755 14.58759546545978
ORBCOMM FM110           
1 41182U 15081D   26087.08201698  .00000782  00000+0  20197-3 0  9996
2 41182  47.0036  24.8974 0002521  44.8133 315.2956 14.58766400545786
ORBCOMM FM112           
1 41184U 15081F   26087.59898055  .00000661  00000+0  17637-3 0  9994
2 41184  46.9988 291.2659 0002026 203.0648 157.0147 14.58768718547186
ORBCOMM FM113           
1 41185U 15081G   26087.57623748  .00000515  00000+0  14541-3 0  9997
2 41185  47.0005 291.7446 0001740 213.8051 146.2724 14.58762108547163
ORBCOMM FM108           
1 41187U 15081J   26087.60749904  .00000691  00000+0  18280-3 0  9995
2 41187  47.0051 203.1441 0003097 200.7819 159.2942 14.58769623548315
ORBCOMM FM117           
1 41188U 15081K   26087.57287199  .00000821  00000+0  21029-3 0  9995
2 41188  47.0008 201.9665 0003585 204.8856 155.1857 14.58766462548352
ORBCOMM FM116           
1 41189U 15081L   26087.27974821  .00000679  00000+0  18011-3 0  9996
2 41189  47.0023 293.1400 0001336  41.4860 318.6127 14.58765476547126
CHUBUSAT-2              
1 41338U 16012B   26087.39903773  .00006681  00000+0  29698-3 0  9990
2 41338  30.9975 131.2180 0008727 330.8328  29.1825 15.20002748556115
CHUBUSAT-3              
1 41339U 16012C   26087.53645462  .00005577  00000+0  26330-3 0  9998
2 41339  31.0046 138.0340 0008956 322.4783  37.5232 15.17838057555936
HORYU-4                 
1 41340U 16012D   26087.60276773  .00116131  00000+0  10511-2 0  9995
2 41340  30.9911 295.3777 0005533 334.6820  25.3562 15.66582692558077
ZIYUAN 3-02 (ZY 3-02)   
1 41556U 16033A   26087.61742407  .00007513  00000+0  33897-3 0  9996
2 41556  97.3874 164.9229 0012907 213.2802 146.7623 15.21214974545730
CARTOSAT-2C             
1 41599U 16040A   26087.64056961  .00008164  00000+0  38991-3 0  9990
2 41599  97.4571 148.6905 0010131  60.6912 299.5334 15.19253167541483
LAPAN-A3                
1 41603U 16040E   26087.63450866  .00004243  00000+0  13728-3 0  9992
2 41603  97.1488  86.4642 0008825 311.9804  48.0686 15.32544511542477
GAOFEN-3                
1 41727U 16049A   26087.60564873  .00000113  00000+0  47346-4 0  9995
2 41727  98.4055  96.5987 0001677  75.4324 284.7052 14.42220813507034
PRATHAM                 
1 41783U 16059A   26087.56194165  .00000885  00000+0  16472-3 0  9997
2 41783  97.8327  87.9724 0032659 114.3605 246.1015 14.67072660507698
